IRIDIUM 921 [-]         
1 24873U 97034E   23224.11050853  .00009977  00000+0  40960-3 0  9996
2 24873  86.3846  79.4604 0005999  15.3338 344.8088 15.24064168428035
IRIDIUM 26 [-]          
1 24903U 97043A   23224.76721717  .00000503  00000+0  16664-3 0  9995
2 24903  86.3954  33.5360 0002213  96.0062 264.1387 14.35958379360392
IRIDIUM 22 [-]          
1 24907U 97043E   23224.79514825  .00000475  00000+0  16040-3 0  9998
2 24907  86.3952  36.5170 0002107  90.1860 269.9578 14.34870350360025
DUMMY MASS 1 [-]        
1 24925U 97048A   23225.03948413  .00000442  00000+0  47627-4 0  9995
2 24925  86.3310  86.7814 0007900  31.9130 328.2571 14.85786379405232
DUMMY MASS 2 [-]        
1 24926U 97048B   23224.08321607  .00000425  00000+0  45926-4 0  9991
2 24926  86.3312  88.7136 0009167  42.1217 318.0710 14.85547942404884
IRIDIUM 29 [-]          
1 24944U 97051A   23225.52377378  .00000437  00000+0  14569-3 0  9992
2 24944  86.3914  66.2400 0001935  85.7314 274.4104 14.35335658356829
IRIDIUM 33 [-]          
1 24946U 97051C   23225.48193391  .00000307  00000+0  10270-3 0  9991
2 24946  86.3829  65.5410 0009853 110.8173 249.4079 14.34084497356171
IRIDIUM 28 [-]          
1 24948U 97051E   23224.82409724  .00000424  00000+0  13864-3 0  9992
2 24948  86.3920  64.4347 0002443  95.0052 265.1423 14.36252967357080
